stk.v.8.0

BEGIN Ephemeris

NumberOfEphemerisPoints 23373
CoordinateSystem Custom RIC Satellite/Origin

EphemerisTimePosVel

15076.000000 -12.092108 -5.957088 -13.032205 0.023657 0.020963 -0.005367
15077.000000 -12.086741 -5.933431 -13.053168 0.023646 0.020948 -0.005376
15078.000000 -12.081365 -5.909785 -13.074116 0.023634 0.020933 -0.005385
15079.000000 -12.075979 -5.886151 -13.095048 0.023623 0.020918 -0.005394
15080.000000 -12.070585 -5.862528 -13.115966 0.023611 0.020903 -0.005403
15081.000000 -12.065182 -5.838917 -13.136869 0.023600 0.020888 -0.005412
15082.000000 -12.059770 -5.815317 -13.157757 0.023588 0.020873 -0.005421
15083.000000 -12.054349 -5.791729 -13.178629 0.023576 0.020858 -0.005430
15084.000000 -12.048919 -5.768152 -13.199487 0.023565 0.020842 -0.005439
15085.000000 -12.043481 -5.744588 -13.220329 0.023553 0.020827 -0.005448
15086.000000 -12.038033 -5.721034 -13.241157 0.023542 0.020812 -0.005457
15087.000000 -12.032576 -5.697493 -13.261969 0.023530 0.020797 -0.005465
15088.000000 -12.027111 -5.673963 -13.282766 0.023518 0.020782 -0.005474
15089.000000 -12.021637 -5.650445 -13.303548 0.023507 0.020767 -0.005483
15090.000000 -12.016153 -5.626938 -13.324315 0.023495 0.020752 -0.005492
15091.000000 -12.010661 -5.603443 -13.345067 0.023483 0.020736 -0.005501
15092.000000 -12.005160 -5.579960 -13.365803 0.023471 0.020721 -0.005510
15093.000000 -11.999650 -5.556489 -13.386524 0.023459 0.020706 -0.005519
15094.000000 -11.994132 -5.533030 -13.407230 0.023448 0.020690 -0.005528
15095.000000 -11.988604 -5.509582 -13.427920 0.023436 0.020675 -0.005536
15096.000000 -11.983068 -5.486146 -13.448595 0.023424 0.020660 -0.005545
15097.000000 -11.977523 -5.462722 -13.469255 0.023412 0.020644 -0.005554
15098.000000 -11.971968 -5.439310 -13.489899 0.023400 0.020629 -0.005563
15099.000000 -11.966406 -5.415910 -13.510529 0.023388 0.020614 -0.005572
15100.000000 -11.960834 -5.392522 -13.531142 0.023376 0.020598 -0.005581
15101.000000 -11.955253 -5.369145 -13.551740 0.023364 0.020582 -0.005589
15102.000000 -11.949664 -5.345781 -13.572323 0.023352 0.020567 -0.005598
15103.000000 -11.944066 -5.322429 -13.592890 0.023340 0.020551 -0.005607
15104.000000 -11.938459 -5.299088 -13.613441 0.023328 0.020536 -0.005616
15105.000000 -11.932843 -5.275760 -13.633977 0.023316 0.020520 -0.005625
15106.000000 -11.927219 -5.252443 -13.654497 0.023304 0.020505 -0.005633
15107.000000 -11.921585 -5.229139 -13.675002 0.023292 0.020489 -0.005642
15108.000000 -11.915943 -5.205847 -13.695491 0.023280 0.020474 -0.005651
15109.000000 -11.910292 -5.182566 -13.715965 0.023268 0.020458 -0.005660
15110.000000 -11.904633 -5.159298 -13.736423 0.023256 0.020442 -0.005668
15111.000000 -11.898964 -5.136042 -13.756865 0.023244 0.020426 -0.005677
15112.000000 -11.893287 -5.112798 -13.777291 0.023232 0.020411 -0.005686
15113.000000 -11.887601 -5.089566 -13.797702 0.023219 0.020395 -0.005695
15114.000000 -11.881907 -5.066347 -13.818096 0.023207 0.020379 -0.005703
15115.000000 -11.876203 -5.043140 -13.838475 0.023195 0.020363 -0.005712
15116.000000 -11.870491 -5.019945 -13.858838 0.023183 0.020347 -0.005721
15117.000000 -11.864770 -4.996762 -13.879186 0.023171 0.020332 -0.005730
15118.000000 -11.859041 -4.973591 -13.899517 0.023159 0.020316 -0.005738
15119.000000 -11.853303 -4.950432 -13.919833 0.023146 0.020300 -0.005747
15120.000000 -11.847556 -4.927286 -13.940133 0.023134 0.020284 -0.005756
15121.000000 -11.841800 -4.904152 -13.960417 0.023121 0.020268 -0.005764
15122.000000 -11.836036 -4.881031 -13.980685 0.023109 0.020252 -0.005773
15123.000000 -11.830263 -4.857922 -14.000936 0.023097 0.020236 -0.005782
15124.000000 -11.824481 -4.834825 -14.021172 0.023084 0.020220 -0.005790
15125.000000 -11.818691 -4.811741 -14.041392 0.023072 0.020204 -0.005799
15126.000000 -11.812892 -4.788669 -14.061595 0.023060 0.020188 -0.005808
15127.000000 -11.807085 -4.765609 -14.081783 0.023047 0.020172 -0.005816
15128.000000 -11.801268 -4.742562 -14.101955 0.023035 0.020156 -0.005825
15129.000000 -11.795443 -4.719527 -14.122110 0.023022 0.020139 -0.005834
15130.000000 -11.789610 -4.696505 -14.142249 0.023010 0.020123 -0.005842
15131.000000 -11.783768 -4.673495 -14.162373 0.022997 0.020107 -0.005851
15132.000000 -11.777917 -4.650498 -14.182479 0.022985 0.020091 -0.005859
15133.000000 -11.772057 -4.627513 -14.202570 0.022972 0.020074 -0.005868
15134.000000 -11.766189 -4.604541 -14.222644 0.022959 0.020058 -0.005877
15135.000000 -11.760313 -4.581582 -14.242702 0.022947 0.020042 -0.005885
15136.000000 -11.754428 -4.558635 -14.262744 0.022934 0.020026 -0.005894
15137.000000 -11.748534 -4.535700 -14.282770 0.022922 0.020009 -0.005902
15138.000000 -11.742631 -4.512778 -14.302779 0.022909 0.019993 -0.005911
15139.000000 -11.736720 -4.489869 -14.322772 0.022897 0.019977 -0.005920
15140.000000 -11.730801 -4.466973 -14.342749 0.022884 0.019960 -0.005928
15141.000000 -11.724873 -4.444089 -14.362709 0.022871 0.019944 -0.005937
15142.000000 -11.718936 -4.421218 -14.382652 0.022858 0.019927 -0.005945
15143.000000 -11.712991 -4.398360 -14.402579 0.022846 0.019911 -0.005954
15144.000000 -11.707037 -4.375514 -14.422490 0.022833 0.019894 -0.005962
15145.000000 -11.701075 -4.352681 -14.442384 0.022820 0.019878 -0.005971
15146.000000 -11.695104 -4.329861 -14.462262 0.022807 0.019861 -0.005979
15147.000000 -11.689124 -4.307054 -14.482123 0.022795 0.019845 -0.005988
15148.000000 -11.683137 -4.284259 -14.501967 0.022782 0.019828 -0.005996
15149.000000 -11.677140 -4.261478 -14.521796 0.022769 0.019811 -0.006005
15150.000000 -11.671135 -4.238709 -14.541607 0.022756 0.019795 -0.006013
15151.000000 -11.665122 -4.215953 -14.561402 0.022743 0.019778 -0.006022
15152.000000 -11.659100 -4.193210 -14.581180 0.022730 0.019761 -0.006030
15153.000000 -11.653069 -4.170480 -14.600941 0.022717 0.019745 -0.006039
15154.000000 -11.647031 -4.147762 -14.620686 0.022704 0.019728 -0.006047
15155.000000 -11.640983 -4.125058 -14.640414 0.022691 0.019711 -0.006056
15156.000000 -11.634927 -4.102367 -14.660125 0.022678 0.019694 -0.006064
15157.000000 -11.628863 -4.079688 -14.679819 0.022665 0.019678 -0.006073
15158.000000 -11.622790 -4.057023 -14.699497 0.022653 0.019661 -0.006081
15159.000000 -11.616709 -4.034370 -14.719158 0.022639 0.019644 -0.006090
15160.000000 -11.610620 -4.011731 -14.738802 0.022626 0.019627 -0.006098
15161.000000 -11.604521 -3.989105 -14.758429 0.022613 0.019610 -0.006106
15162.000000 -11.598415 -3.966491 -14.778039 0.022600 0.019593 -0.006115
15163.000000 -11.592300 -3.943891 -14.797632 0.022587 0.019576 -0.006123
15164.000000 -11.586177 -3.921304 -14.817209 0.022574 0.019559 -0.006132
15165.000000 -11.580045 -3.898730 -14.836768 0.022561 0.019542 -0.006140
15166.000000 -11.573905 -3.876170 -14.856310 0.022548 0.019525 -0.006149
15167.000000 -11.567757 -3.853622 -14.875836 0.022535 0.019508 -0.006157
15168.000000 -11.561600 -3.831088 -14.895344 0.022521 0.019492 -0.006165
15169.000000 -11.555434 -3.808566 -14.914836 0.022508 0.019474 -0.006174
15170.000000 -11.549261 -3.786058 -14.934310 0.022495 0.019457 -0.006182
15171.000000 -11.543079 -3.763563 -14.953767 0.022482 0.019440 -0.006190
15172.000000 -11.536888 -3.741082 -14.973207 0.022468 0.019423 -0.006199
15173.000000 -11.530689 -3.718613 -14.992630 0.022455 0.019406 -0.006207
15174.000000 -11.524482 -3.696158 -15.012036 0.022442 0.019388 -0.006215
15175.000000 -11.518267 -3.673717 -15.031424 0.022428 0.019371 -0.006224
15176.000000 -11.512043 -3.651288 -15.050795 0.022415 0.019354 -0.006232
15177.000000 -11.505811 -3.628873 -15.070149 0.022402 0.019337 -0.006240
15178.000000 -11.499571 -3.606471 -15.089486 0.022388 0.019320 -0.006249
15179.000000 -11.493322 -3.584083 -15.108806 0.022375 0.019302 -0.006257
15180.000000 -11.487065 -3.561708 -15.128109 0.022362 0.019285 -0.006265
15181.000000 -11.480800 -3.539346 -15.147394 0.022348 0.019268 -0.006274
15182.000000 -11.474526 -3.516998 -15.166661 0.022335 0.019250 -0.006282
15183.000000 -11.468244 -3.494664 -15.185911 0.022321 0.019233 -0.006290
15184.000000 -11.461954 -3.472343 -15.205144 0.022308 0.019215 -0.006298
15185.000000 -11.455656 -3.450035 -15.224360 0.022294 0.019198 -0.006307
15186.000000 -11.449349 -3.427741 -15.243558 0.022281 0.019181 -0.006315
15187.000000 -11.443034 -3.405460 -15.262738 0.022267 0.019163 -0.006323
15188.000000 -11.436711 -3.383193 -15.281901 0.022254 0.019146 -0.006332
15189.000000 -11.430379 -3.360939 -15.301047 0.022240 0.019128 -0.006340
15190.000000 -11.424040 -3.338699 -15.320175 0.022226 0.019111 -0.006348
15191.000000 -11.417692 -3.316472 -15.339286 0.022213 0.019093 -0.006356
15192.000000 -11.411336 -3.294260 -15.358379 0.022199 0.019075 -0.006364
15193.000000 -11.404971 -3.272060 -15.377454 0.022186 0.019058 -0.006373
15194.000000 -11.398599 -3.249875 -15.396512 0.022172 0.019040 -0.006381
15195.000000 -11.392218 -3.227703 -15.415552 0.022158 0.019022 -0.006389
15196.000000 -11.385829 -3.205545 -15.434574 0.022145 0.019005 -0.006397
15197.000000 -11.379432 -3.183400 -15.453579 0.022131 0.018987 -0.006405
15198.000000 -11.373027 -3.161269 -15.472566 0.022117 0.018970 -0.006414
15199.000000 -11.366613 -3.139152 -15.491536 0.022103 0.018952 -0.006422
15200.000000 -11.360191 -3.117049 -15.510488 0.022090 0.018934 -0.006430
15201.000000 -11.353762 -3.094959 -15.529422 0.022076 0.018916 -0.006438
15202.000000 -11.347324 -3.072883 -15.548338 0.022062 0.018898 -0.006446
15203.000000 -11.340878 -3.050821 -15.567236 0.022048 0.018880 -0.006454
15204.000000 -11.334423 -3.028773 -15.586116 0.022034 0.018863 -0.006462
15205.000000 -11.327961 -3.006739 -15.604979 0.022020 0.018845 -0.006470
15206.000000 -11.321491 -2.984718 -15.623824 0.022007 0.018827 -0.006479
15207.000000 -11.315012 -2.962712 -15.642651 0.021993 0.018809 -0.006487
15208.000000 -11.308525 -2.940719 -15.661460 0.021979 0.018791 -0.006495
END Ephemeris